{
  "type": "FeatureCollection",
  "features": [
    {
      "type": "Feature",
      "properties": {
        "norad_id": 34765,
        "name": "IRIDIUM 33 DEB",
        "group": "iridium-33-debris",
        "lat": -79.04345380223891,
        "lon": -126.49877187697957,
        "alt_km": 755.7868435531163,
        "timestamp": "2025-12-09T09:46:48.030850+00:00",
        "meta_object_name": "IRIDIUM 33 DEB",
        "meta_object_id": "1997-051LJ",
        "meta_epoch": "2025-12-08T21:29:33.152640",
        "meta_mean_motion": 14.40449465,
        "meta_eccentricity": 0.00150613,
        "meta_inclination": 86.3395,
        "meta_ra_of_asc_node": 34.4111,
        "meta_arg_of_pericenter": 224.9418,
        "meta_mean_anomaly": 261.3628,
        "meta_ephemeris_type": 0,
        "meta_classification_type": "U",
        "meta_norad_cat_id": 34765,
        "meta_element_set_no": 999,
        "meta_rev_at_epoch": 87558,
        "meta_bstar": 0.00055464873,
        "meta_mean_motion_dot": 1.783e-05,
        "meta_mean_motion_ddot": 0,
        "tle_line1": "1 34765U 97051LJ  25342.89552260  .00001783  00000+0  55465-3 0  9996",
        "tle_line2": "2 34765  86.3395  34.4111 0015061 224.9418 261.3628 14.40449465875580"
      },
      "geometry": {
        "type": "Point",
        "coordinates": [
          -126.49877187697957,
          -79.04345380223891
        ]
      }
    },
    {
      "type": "Feature",
      "properties": {
        "norad_id": 34833,
        "name": "IRIDIUM 33 DEB",
        "group": "iridium-33-debris",
        "lat": -42.69523138755462,
        "lon": -124.23347629394534,
        "alt_km": 731.0067173303823,
        "timestamp": "2025-12-09T09:46:48.030861+00:00",
        "meta_object_name": "IRIDIUM 33 DEB",
        "meta_object_id": "1997-051MH",
        "meta_epoch": "2025-12-08T23:05:30.624000",
        "meta_mean_motion": 14.52340572,
        "meta_eccentricity": 0.0021784,
        "meta_inclination": 86.3932,
        "meta_ra_of_asc_node": 52.6222,
        "meta_arg_of_pericenter": 110.1341,
        "meta_mean_anomaly": 305.4079,
        "meta_ephemeris_type": 0,
        "meta_classification_type": "U",
        "meta_norad_cat_id": 34833,
        "meta_element_set_no": 999,
        "meta_rev_at_epoch": 87660,
        "meta_bstar": 0.00097622,
        "meta_mean_motion_dot": 4.003e-05,
        "meta_mean_motion_ddot": 0,
        "tle_line1": "1 34833U 97051MH  25342.96216000  .00004003  00000+0  97622-3 0  9998",
        "tle_line2": "2 34833  86.3932  52.6222 0021784 110.1341 305.4079 14.52340572876604"
      },
      "geometry": {
        "type": "Point",
        "coordinates": [
          -124.23347629394534,
          -42.69523138755462
        ]
      }
    },
    {
      "type": "Feature",
      "properties": {
        "norad_id": 34870,
        "name": "IRIDIUM 33 DEB",
        "group": "iridium-33-debris",
        "lat": -85.27889488696404,
        "lon": -172.9950300672425,
        "alt_km": 644.8916043944491,
        "timestamp": "2025-12-09T09:46:48.030872+00:00",
        "meta_object_name": "IRIDIUM 33 DEB",
        "meta_object_id": "1997-051MQ",
        "meta_epoch": "2025-12-07T16:41:29.147136",
        "meta_mean_motion": 14.76272854,
        "meta_eccentricity": 0.00154972,
        "meta_inclination": 86.3098,
        "meta_ra_of_asc_node": 316.3932,
        "meta_arg_of_pericenter": 201.8058,
        "meta_mean_anomaly": 332.1989,
        "meta_ephemeris_type": 0,
        "meta_classification_type": "U",
        "meta_norad_cat_id": 34870,
        "meta_element_set_no": 999,
        "meta_rev_at_epoch": 88836,
        "meta_bstar": 0.0021061979,
        "meta_mean_motion_dot": 0.00014658,
        "meta_mean_motion_ddot": 0,
        "tle_line1": "1 34870U 97051MQ  25341.69547624  .00014658  00000+0  21062-2 0  9998",
        "tle_line2": "2 34870  86.3098 316.3932 0015497 201.8058 332.1989 14.76272854888369"
      },
      "geometry": {
        "type": "Point",
        "coordinates": [
          -172.9950300672425,
          -85.27889488696404
        ]
      }
    },
    {
      "type": "Feature",
      "properties": {
        "norad_id": 34896,
        "name": "IRIDIUM 33 DEB",
        "group": "iridium-33-debris",
        "lat": -49.24545907718525,
        "lon": 152.45181716515313,
        "alt_km": 663.2482983601412,
        "timestamp": "2025-12-09T09:46:48.030883+00:00",
        "meta_object_name": "IRIDIUM 33 DEB",
        "meta_object_id": "1997-051MY",
        "meta_epoch": "2025-12-08T06:47:45.155328",
        "meta_mean_motion": 14.66206819,
        "meta_eccentricity": 0.00239488,
        "meta_inclination": 86.3293,
        "meta_ra_of_asc_node": 328.6838,
        "meta_arg_of_pericenter": 231.0822,
        "meta_mean_anomaly": 187.3834,
        "meta_ephemeris_type": 0,
        "meta_classification_type": "U",
        "meta_norad_cat_id": 34896,
        "meta_element_set_no": 999,
        "meta_rev_at_epoch": 87554,
        "meta_bstar": 0.001338628,
        "meta_mean_motion_dot": 7.421e-05,
        "meta_mean_motion_ddot": 0,
        "tle_line1": "1 34896U 97051MY  25342.28316152  .00007421  00000+0  13386-2 0  9992",
        "tle_line2": "2 34896  86.3293 328.6838 0023948 231.0822 187.3834 14.66206819875541"
      },
      "geometry": {
        "type": "Point",
        "coordinates": [
          152.45181716515313,
          -49.24545907718525
        ]
      }
    },
    {
      "type": "Feature",
      "properties": {
        "norad_id": 34926,
        "name": "IRIDIUM 33 DEB",
        "group": "iridium-33-debris",
        "lat": 79.79247661347954,
        "lon": 167.74727982695487,
        "alt_km": 753.656631241799,
        "timestamp": "2025-12-09T09:46:48.030894+00:00",
        "meta_object_name": "IRIDIUM 33 DEB",
        "meta_object_id": "1997-051NF",
        "meta_epoch": "2025-12-09T03:00:38.009088",
        "meta_mean_motion": 14.54144924,
        "meta_eccentricity": 0.0076003,
        "meta_inclination": 86.1319,
        "meta_ra_of_asc_node": 9.9484,
        "meta_arg_of_pericenter": 305.1684,
        "meta_mean_anomaly": 118.2748,
        "meta_ephemeris_type": 0,
        "meta_classification_type": "U",
        "meta_norad_cat_id": 34926,
        "meta_element_set_no": 999,
        "meta_rev_at_epoch": 86404,
        "meta_bstar": 0.0063093,
        "meta_mean_motion_dot": 0.00027819,
        "meta_mean_motion_ddot": 0,
        "tle_line1": "1 34926U 97051NF  25343.12543992  .00027819  00000+0  63093-2 0  9997",
        "tle_line2": "2 34926  86.1319   9.9484 0076003 305.1684 118.2748 14.54144924864042"
      },
      "geometry": {
        "type": "Point",
        "coordinates": [
          167.74727982695487,
          79.79247661347954
        ]
      }
    },
    {
      "type": "Feature",
      "properties": {
        "norad_id": 34985,
        "name": "IRIDIUM 33 DEB",
        "group": "iridium-33-debris",
        "lat": 11.360340469141374,
        "lon": 59.03172898253043,
        "alt_km": 764.5746569487719,
        "timestamp": "2025-12-09T09:46:48.030911+00:00",
        "meta_object_name": "IRIDIUM 33 DEB",
        "meta_object_id": "1997-051NR",
        "meta_epoch": "2025-12-09T04:51:57.168864",
        "meta_mean_motion": 14.41984633,
        "meta_eccentricity": 0.0020369,
        "meta_inclination": 86.3692,
        "meta_ra_of_asc_node": 58.3881,
        "meta_arg_of_pericenter": 231.8923,
        "meta_mean_anomaly": 157.2184,
        "meta_ephemeris_type": 0,
        "meta_classification_type": "U",
        "meta_norad_cat_id": 34985,
        "meta_element_set_no": 999,
        "meta_rev_at_epoch": 87124,
        "meta_bstar": 0.00086961,
        "meta_mean_motion_dot": 2.876e-05,
        "meta_mean_motion_ddot": 0,
        "tle_line1": "1 34985U 97051NR  25343.20274501  .00002876  00000+0  86961-3 0  9994",
        "tle_line2": "2 34985  86.3692  58.3881 0020369 231.8923 157.2184 14.41984633871249"
      },
      "geometry": {
        "type": "Point",
        "coordinates": [
          59.03172898253043,
          11.360340469141374
        ]
      }
    },
    {
      "type": "Feature",
      "properties": {
        "norad_id": 35051,
        "name": "IRIDIUM 33 DEB",
        "group": "iridium-33-debris",
        "lat": -57.135159458971145,
        "lon": -163.97478419463664,
        "alt_km": 746.300568356608,
        "timestamp": "2025-12-09T09:46:48.030922+00:00",
        "meta_object_name": "IRIDIUM 33 DEB",
        "meta_object_id": "1997-051NX",
        "meta_epoch": "2025-12-08T19:24:58.044960",
        "meta_mean_motion": 14.47572985,
        "meta_eccentricity": 0.00105834,
        "meta_inclination": 86.3244,
        "meta_ra_of_asc_node": 10.5757,
        "meta_arg_of_pericenter": 101.6319,
        "meta_mean_anomaly": 258.6072,
        "meta_ephemeris_type": 0,
        "meta_classification_type": "U",
        "meta_norad_cat_id": 35051,
        "meta_element_set_no": 999,
        "meta_rev_at_epoch": 86939,
        "meta_bstar": 0.001137816,
        "meta_mean_motion_dot": 4.208e-05,
        "meta_mean_motion_ddot": 0,
        "tle_line1": "1 35051U 97051NX  25342.80900515  .00004208  00000+0  11378-2 0  9995",
        "tle_line2": "2 35051  86.3244  10.5757 0010583 101.6319 258.6072 14.47572985869393"
      },
      "geometry": {
        "type": "Point",
        "coordinates": [
          -163.97478419463664,
          -57.135159458971145
        ]
      }
    }
  ]
}